[{"OBJECT_NAME":"ONEWEB-0405","OBJECT_ID":"2021-132S","EPOCH":"2026-06-11T05:07:23.912544","MEAN_MOTION":13.18686154,"ECCENTRICITY":0.0001925,"INCLINATION":87.917,"RA_OF_ASC_NODE":336.6283,"ARG_OF_PERICENTER":105.4704,"MEAN_ANOMALY":254.6641,"EPHEMERIS_TYPE":0,"CLASSIFICATION_TYPE":"U","NORAD_CAT_ID":50485,"ELEMENT_SET_NO":999,"REV_AT_EPOCH":22120,"BSTAR":0.00010143000000000001,"MEAN_MOTION_DOT":5.3e-07,"MEAN_MOTION_DDOT":0.0},{"OBJECT_NAME":"ONEWEB-0406","OBJECT_ID":"2021-132T","EPOCH":"2026-06-10T23:27:27.518976","MEAN_MOTION":13.18684711,"ECCENTRICITY":0.0002393,"INCLINATION":87.9163,"RA_OF_ASC_NODE":336.6921,"ARG_OF_PERICENTER":88.6002,"MEAN_ANOMALY":271.5404,"EPHEMERIS_TYPE":0,"CLASSIFICATION_TYPE":"U","NORAD_CAT_ID":50486,"ELEMENT_SET_NO":999,"REV_AT_EPOCH":22080,"BSTAR":8.3652e-05,"MEAN_MOTION_DOT":4.6e-07,"MEAN_MOTION_DDOT":0.0},{"OBJECT_NAME":"ONEWEB-0407","OBJECT_ID":"2021-132U","EPOCH":"2026-06-11T01:07:01.011936","MEAN_MOTION":13.18685056,"ECCENTRICITY":0.000161,"INCLINATION":87.9167,"RA_OF_ASC_NODE":336.6701,"ARG_OF_PERICENTER":92.4623,"MEAN_ANOMALY":267.6693,"EPHEMERIS_TYPE":0,"CLASSIFICATION_TYPE":"U","NORAD_CAT_ID":50487,"ELEMENT_SET_NO":999,"REV_AT_EPOCH":22075,"BSTAR":7.6044e-05,"MEAN_MOTION_DOT":4.3e-07,"MEAN_MOTION_DDOT":0.0},{"OBJECT_NAME":"ONEWEB-0409","OBJECT_ID":"2021-132V","EPOCH":"2026-06-11T03:35:40.340544","MEAN_MOTION":13.11416109,"ECCENTRICITY":0.0002092,"INCLINATION":87.8896,"RA_OF_ASC_NODE":22.2567,"ARG_OF_PERICENTER":87.2771,"MEAN_ANOMALY":272.8596,"EPHEMERIS_TYPE":0,"CLASSIFICATION_TYPE":"U","NORAD_CAT_ID":50488,"ELEMENT_SET_NO":999,"REV_AT_EPOCH":21479,"BSTAR":0.00098949,"MEAN_MOTION_DOT":3.63e-06,"MEAN_MOTION_DDOT":0.0},{"OBJECT_NAME":"ONEWEB-0412","OBJECT_ID":"2021-132W","EPOCH":"2026-06-11T04:28:31.780416","MEAN_MOTION":13.18684893,"ECCENTRICITY":0.0001703,"INCLINATION":87.9165,"RA_OF_ASC_NODE":336.6508,"ARG_OF_PERICENTER":82.3881,"MEAN_ANOMALY":277.7445,"EPHEMERIS_TYPE":0,"CLASSIFICATION_TYPE":"U","NORAD_CAT_ID":50489,"ELEMENT_SET_NO":999,"REV_AT_EPOCH":22086,"BSTAR":4.4541e-05,"MEAN_MOTION_DOT":3e-07,"MEAN_MOTION_DDOT":0.0},{"OBJECT_NAME":"ONEWEB-0413","OBJECT_ID":"2021-132X","EPOCH":"2026-06-11T04:35:49.431840","MEAN_MOTION":13.18684836,"ECCENTRICITY":0.0001553,"INCLINATION":87.9157,"RA_OF_ASC_NODE":336.6487,"ARG_OF_PERICENTER":85.9298,"MEAN_ANOMALY":274.2012,"EPHEMERIS_TYPE":0,"CLASSIFICATION_TYPE":"U","NORAD_CAT_ID":50490,"ELEMENT_SET_NO":999,"REV_AT_EPOCH":22080,"BSTAR":0.0008824,"MEAN_MOTION_DOT":3.61e-06,"MEAN_MOTION_DDOT":0.0},{"OBJECT_NAME":"ONEWEB-0414","OBJECT_ID":"2021-132Y","EPOCH":"2026-06-11T04:13:58.236672","MEAN_MOTION":13.18685206,"ECCENTRICITY":0.0001852,"INCLINATION":87.9167,"RA_OF_ASC_NODE":336.6332,"ARG_OF_PERICENTER":85.754,"MEAN_ANOMALY":274.3804,"EPHEMERIS_TYPE":0,"CLASSIFICATION_TYPE":"U","NORAD_CAT_ID":50491,"ELEMENT_SET_NO":999,"REV_AT_EPOCH":22083,"BSTAR":3.1343e-05,"MEAN_MOTION_DOT":2.5e-07,"MEAN_MOTION_DDOT":0.0},{"OBJECT_NAME":"ONEWEB-0417","OBJECT_ID":"2021-132Z","EPOCH":"2026-06-11T04:26:06.545472","MEAN_MOTION":13.1868531,"ECCENTRICITY":0.0002078,"INCLINATION":87.9159,"RA_OF_ASC_NODE":336.6517,"ARG_OF_PERICENTER":91.3298,"MEAN_ANOMALY":268.8072,"EPHEMERIS_TYPE":0,"CLASSIFICATION_TYPE":"U","NORAD_CAT_ID":50492,"ELEMENT_SET_NO":999,"REV_AT_EPOCH":22081,"BSTAR":5.9454e-05,"MEAN_MOTION_DOT":3.6e-07,"MEAN_MOTION_DDOT":0.0},{"OBJECT_NAME":"ONEWEB-0418","OBJECT_ID":"2021-132AA","EPOCH":"2026-06-11T04:40:29.532000","MEAN_MOTION":13.18685455,"ECCENTRICITY":0.0002128,"INCLINATION":87.9168,"RA_OF_ASC_NODE":336.6486,"ARG_OF_PERICENTER":91.9979,"MEAN_ANOMALY":268.1397,"EPHEMERIS_TYPE":0,"CLASSIFICATION_TYPE":"U","NORAD_CAT_ID":50493,"ELEMENT_SET_NO":999,"REV_AT_EPOCH":22087,"BSTAR":0.00010342,"MEAN_MOTION_DOT":5.4e-07,"MEAN_MOTION_DDOT":0.0},{"OBJECT_NAME":"ONEWEB-0419","OBJECT_ID":"2021-132AB","EPOCH":"2026-06-11T05:07:07.945824","MEAN_MOTION":13.18665307,"ECCENTRICITY":0.0002088,"INCLINATION":87.9165,"RA_OF_ASC_NODE":336.6447,"ARG_OF_PERICENTER":97.4921,"MEAN_ANOMALY":262.6448,"EPHEMERIS_TYPE":0,"CLASSIFICATION_TYPE":"U","NORAD_CAT_ID":50494,"ELEMENT_SET_NO":999,"REV_AT_EPOCH":22079,"BSTAR":5.0766e-05,"MEAN_MOTION_DOT":3.3e-07,"MEAN_MOTION_DDOT":0.0},{"OBJECT_NAME":"ONEWEB-0420","OBJECT_ID":"2021-132AC","EPOCH":"2026-06-11T04:16:23.664288","MEAN_MOTION":13.1868588,"ECCENTRICITY":0.0001633,"INCLINATION":87.9158,"RA_OF_ASC_NODE":336.6552,"ARG_OF_PERICENTER":93.2076,"MEAN_ANOMALY":266.9243,"EPHEMERIS_TYPE":0,"CLASSIFICATION_TYPE":"U","NORAD_CAT_ID":50495,"ELEMENT_SET_NO":999,"REV_AT_EPOCH":22078,"BSTAR":5.3605000000000006e-05,"MEAN_MOTION_DOT":3.4e-07,"MEAN_MOTION_DDOT":0.0},{"OBJECT_NAME":"ONEWEB-0421","OBJECT_ID":"2021-132AD","EPOCH":"2026-06-11T05:55:56.424576","MEAN_MOTION":13.18684436,"ECCENTRICITY":0.0001876,"INCLINATION":87.9163,"RA_OF_ASC_NODE":336.6388,"ARG_OF_PERICENTER":79.6004,"MEAN_ANOMALY":280.534,"EPHEMERIS_TYPE":0,"CLASSIFICATION_TYPE":"U","NORAD_CAT_ID":50496,"ELEMENT_SET_NO":999,"REV_AT_EPOCH":22083,"BSTAR":4.19e-07,"MEAN_MOTION_DOT":1.3e-07,"MEAN_MOTION_DDOT":0.0},{"OBJECT_NAME":"ONEWEB-0424","OBJECT_ID":"2021-132AE","EPOCH":"2026-06-11T05:00:06.116832","MEAN_MOTION":13.18684683,"ECCENTRICITY":0.0002017,"INCLINATION":87.9167,"RA_OF_ASC_NODE":336.6444,"ARG_OF_PERICENTER":101.3025,"MEAN_ANOMALY":258.8334,"EPHEMERIS_TYPE":0,"CLASSIFICATION_TYPE":"U","NORAD_CAT_ID":50497,"ELEMENT_SET_NO":999,"REV_AT_EPOCH":22085,"BSTAR":0.00012182999999999999,"MEAN_MOTION_DOT":6.1e-07,"MEAN_MOTION_DDOT":0.0},{"OBJECT_NAME":"ONEWEB-0426","OBJECT_ID":"2021-132AF","EPOCH":"2026-06-11T05:49:52.600224","MEAN_MOTION":13.1868842,"ECCENTRICITY":0.0002379,"INCLINATION":87.9167,"RA_OF_ASC_NODE":336.6286,"ARG_OF_PERICENTER":79.2159,"MEAN_ANOMALY":280.9241,"EPHEMERIS_TYPE":0,"CLASSIFICATION_TYPE":"U","NORAD_CAT_ID":50498,"ELEMENT_SET_NO":999,"REV_AT_EPOCH":22080,"BSTAR":3.3669e-05,"MEAN_MOTION_DOT":2.6e-07,"MEAN_MOTION_DDOT":0.0},{"OBJECT_NAME":"ONEWEB-0427","OBJECT_ID":"2021-132AG","EPOCH":"2026-06-11T04:57:40.468032","MEAN_MOTION":13.18684531,"ECCENTRICITY":0.0002074,"INCLINATION":87.9168,"RA_OF_ASC_NODE":336.6245,"ARG_OF_PERICENTER":90.4995,"MEAN_ANOMALY":269.6375,"EPHEMERIS_TYPE":0,"CLASSIFICATION_TYPE":"U","NORAD_CAT_ID":50499,"ELEMENT_SET_NO":999,"REV_AT_EPOCH":22082,"BSTAR":0.00010328,"MEAN_MOTION_DOT":5.4e-07,"MEAN_MOTION_DDOT":0.0},{"OBJECT_NAME":"ONEWEB-0429","OBJECT_ID":"2021-132AH","EPOCH":"2026-06-11T04:38:15.110016","MEAN_MOTION":13.18685167,"ECCENTRICITY":0.0001728,"INCLINATION":87.9161,"RA_OF_ASC_NODE":336.6521,"ARG_OF_PERICENTER":91.8329,"MEAN_ANOMALY":268.3001,"EPHEMERIS_TYPE":0,"CLASSIFICATION_TYPE":"U","NORAD_CAT_ID":50500,"ELEMENT_SET_NO":999,"REV_AT_EPOCH":22079,"BSTAR":-2.7085e-05,"MEAN_MOTION_DOT":2e-08,"MEAN_MOTION_DDOT":0.0}]